[{"OBJECT_NAME":"STARLINK-6368","OBJECT_ID":"2023-094S","EPOCH":"2026-03-09T22:00:01.999584","MEAN_MOTION":15.12976529,"ECCENTRICITY":0.0001762,"INCLINATION":43.0008,"RA_OF_ASC_NODE":28.4054,"ARG_OF_PERICENTER":256.3705,"MEAN_ANOMALY":50.16,"EPHEMERIS_TYPE":0,"CLASSIFICATION_TYPE":"U","NORAD_CAT_ID":57234,"ELEMENT_SET_NO":999,"REV_AT_EPOCH":567,"BSTAR":0.069359819,"MEAN_MOTION_DOT":0.01355316,"MEAN_MOTION_DDOT":0},{"OBJECT_NAME":"DEIMOS","OBJECT_ID":"2024-149BL","EPOCH":"2026-03-09T18:15:22.104864","MEAN_MOTION":15.40482219,"ECCENTRICITY":0.00045078,"INCLINATION":97.3812,"RA_OF_ASC_NODE":153.6981,"ARG_OF_PERICENTER":283.7118,"MEAN_ANOMALY":76.3626,"EPHEMERIS_TYPE":0,"CLASSIFICATION_TYPE":"U","NORAD_CAT_ID":60526,"ELEMENT_SET_NO":999,"REV_AT_EPOCH":8712,"BSTAR":0.0005120241,"MEAN_MOTION_DOT":0.00020707,"MEAN_MOTION_DDOT":0}]
